sat04752
1 04752U 70025DA  20046.64066850  .00000517  00000-0  36026-3 0  9992
2 04752  99.8788 301.7847 0026382 267.5782  92.2361 14.03793204508400
